{"data":{"type": "FeatureCollection",
"name": "HouseM7-W",
"crs": { "type": "name", "properties": { "name": "urn:ogc:def:crs:OGC:1.3:CRS84" } },
"features": [
{ "type": "Feature", "properties": { "id": null }, "geometry": { "type": "Polygon", "coordinates": [ [ [ 40.727446894108915, 34.746354695250758 ], [ 40.727459526753485, 34.746358889191328 ], [ 40.727464672596859, 34.746350445845621 ], [ 40.727475775910648, 34.746327637470245 ], [ 40.72749807656735, 34.746291357024901 ], [ 40.727569903576686, 34.746156163085523 ], [ 40.727466897736328, 34.746122548622935 ], [ 40.72739455201738, 34.746277389795786 ], [ 40.727408349775487, 34.746282627573144 ], [ 40.72737949870595, 34.746331072300272 ], [ 40.727446894108915, 34.746354695250758 ] ] ] } }
]
}}